[{"OBJECT_NAME":"SL-8 R/B","OBJECT_ID":"1988-053B","EPOCH":"2026-03-25T10:46:42.168288","MEAN_MOTION":14.3892634,"ECCENTRICITY":0.00215107,"INCLINATION":74.0451,"RA_OF_ASC_NODE":83.4139,"ARG_OF_PERICENTER":260.6238,"MEAN_ANOMALY":214.9836,"EPHEMERIS_TYPE":0,"CLASSIFICATION_TYPE":"U","NORAD_CAT_ID":19257,"ELEMENT_SET_NO":999,"REV_AT_EPOCH":97886,"BSTAR":0.00011112966,"MEAN_MOTION_DOT":3.17e-6,"MEAN_MOTION_DDOT":0},{"OBJECT_NAME":"COSMOS 1975","OBJECT_ID":"1988-093A","EPOCH":"2026-03-25T07:24:55.719936","MEAN_MOTION":15.2827424,"ECCENTRICITY":0.00132767,"INCLINATION":82.5168,"RA_OF_ASC_NODE":102.0002,"ARG_OF_PERICENTER":113.151,"MEAN_ANOMALY":247.113,"EPHEMERIS_TYPE":0,"CLASSIFICATION_TYPE":"U","NORAD_CAT_ID":19573,"ELEMENT_SET_NO":999,"REV_AT_EPOCH":2179,"BSTAR":0.00021329819,"MEAN_MOTION_DOT":5.921e-5,"MEAN_MOTION_DDOT":0},{"OBJECT_NAME":"SL-14 R/B","OBJECT_ID":"1988-093B","EPOCH":"2026-03-25T13:52:32.365632","MEAN_MOTION":14.85674919,"ECCENTRICITY":0.00204015,"INCLINATION":82.5335,"RA_OF_ASC_NODE":27.1305,"ARG_OF_PERICENTER":350.1083,"MEAN_ANOMALY":182.9199,"EPHEMERIS_TYPE":0,"CLASSIFICATION_TYPE":"U","NORAD_CAT_ID":19574,"ELEMENT_SET_NO":999,"REV_AT_EPOCH":337,"BSTAR":6.2533237e-5,"MEAN_MOTION_DOT":5.68e-6,"MEAN_MOTION_DDOT":0},{"OBJECT_NAME":"SL-16 R/B","OBJECT_ID":"1988-102B","EPOCH":"2026-03-25T08:58:28.555104","MEAN_MOTION":14.16154494,"ECCENTRICITY":0.0014969,"INCLINATION":70.9977,"RA_OF_ASC_NODE":118.4966,"ARG_OF_PERICENTER":337.7337,"MEAN_ANOMALY":22.3135,"EPHEMERIS_TYPE":0,"CLASSIFICATION_TYPE":"U","NORAD_CAT_ID":19650,"ELEMENT_SET_NO":999,"REV_AT_EPOCH":92911,"BSTAR":-9.7743811e-5,"MEAN_MOTION_DOT":-2.41e-6,"MEAN_MOTION_DDOT":0},{"OBJECT_NAME":"INTERCOSMOS 24","OBJECT_ID":"1989-080A","EPOCH":"2026-03-25T10:48:45.011808","MEAN_MOTION":12.59578417,"ECCENTRICITY":0.11867842,"INCLINATION":82.6011,"RA_OF_ASC_NODE":94.1376,"ARG_OF_PERICENTER":256.203,"MEAN_ANOMALY":90.449,"EPHEMERIS_TYPE":0,"CLASSIFICATION_TYPE":"U","NORAD_CAT_ID":20261,"ELEMENT_SET_NO":999,"REV_AT_EPOCH":66878,"BSTAR":0.00015741628,"MEAN_MOTION_DOT":5.31e-6,"MEAN_MOTION_DDOT":0},{"OBJECT_NAME":"SL-14 R/B","OBJECT_ID":"1989-080C","EPOCH":"2026-03-25T11:30:36.550944","MEAN_MOTION":12.5050907,"ECCENTRICITY":0.1230873,"INCLINATION":82.5962,"RA_OF_ASC_NODE":163.0542,"ARG_OF_PERICENTER":148.6756,"MEAN_ANOMALY":219.4029,"EPHEMERIS_TYPE":0,"CLASSIFICATION_TYPE":"U","NORAD_CAT_ID":20262,"ELEMENT_SET_NO":999,"REV_AT_EPOCH":66212,"BSTAR":0.00011675652,"MEAN_MOTION_DOT":4.14e-6,"MEAN_MOTION_DDOT":0},{"OBJECT_NAME":"DELTA 1 R/B","OBJECT_ID":"1989-089B","EPOCH":"2026-03-25T06:40:43.053312","MEAN_MOTION":14.50675426,"ECCENTRICITY":0.00706408,"INCLINATION":97.0694,"RA_OF_ASC_NODE":289.2361,"ARG_OF_PERICENTER":73.7131,"MEAN_ANOMALY":287.1822,"EPHEMERIS_TYPE":0,"CLASSIFICATION_TYPE":"U","NORAD_CAT_ID":20323,"ELEMENT_SET_NO":999,"REV_AT_EPOCH":89799,"BSTAR":8.7072651e-5,"MEAN_MOTION_DOT":3.18e-6,"MEAN_MOTION_DDOT":0},{"OBJECT_NAME":"ARIANE 40 R/B","OBJECT_ID":"1990-005H","EPOCH":"2026-03-25T14:06:39.578112","MEAN_MOTION":14.39880608,"ECCENTRICITY":0.00108316,"INCLINATION":98.305,"RA_OF_ASC_NODE":144.7732,"ARG_OF_PERICENTER":151.5722,"MEAN_ANOMALY":208.6059,"EPHEMERIS_TYPE":0,"CLASSIFICATION_TYPE":"U","NORAD_CAT_ID":20443,"ELEMENT_SET_NO":999,"REV_AT_EPOCH":89509,"BSTAR":9.8758868e-5,"MEAN_MOTION_DOT":2.68e-6,"MEAN_MOTION_DDOT":0},{"OBJECT_NAME":"DELTA 2 R/B(1)","OBJECT_ID":"1990-008B","EPOCH":"2026-03-25T08:10:59.921184","MEAN_MOTION":15.57981471,"ECCENTRICITY":0.00790563,"INCLINATION":35.6038,"RA_OF_ASC_NODE":71.9795,"ARG_OF_PERICENTER":44.5824,"MEAN_ANOMALY":316.1238,"EPHEMERIS_TYPE":0,"CLASSIFICATION_TYPE":"U","NORAD_CAT_ID":20453,"ELEMENT_SET_NO":999,"REV_AT_EPOCH":92857,"BSTAR":0.00072555971,"MEAN_MOTION_DOT":0.00065596,"MEAN_MOTION_DDOT":0},{"OBJECT_NAME":"COSMOS 2058","OBJECT_ID":"1990-010A","EPOCH":"2026-03-25T14:29:27.762720","MEAN_MOTION":15.11459947,"ECCENTRICITY":0.00074276,"INCLINATION":82.4683,"RA_OF_ASC_NODE":31.7458,"ARG_OF_PERICENTER":282.8865,"MEAN_ANOMALY":77.1536,"EPHEMERIS_TYPE":0,"CLASSIFICATION_TYPE":"U","NORAD_CAT_ID":20465,"ELEMENT_SET_NO":999,"REV_AT_EPOCH":94464,"BSTAR":0.00027010394,"MEAN_MOTION_DOT":4.597e-5,"MEAN_MOTION_DDOT":0},{"OBJECT_NAME":"SL-14 R/B","OBJECT_ID":"1990-010B","EPOCH":"2026-03-25T12:52:58.067616","MEAN_MOTION":14.83582753,"ECCENTRICITY":0.00184477,"INCLINATION":82.4991,"RA_OF_ASC_NODE":252.4984,"ARG_OF_PERICENTER":245.9352,"MEAN_ANOMALY":113.9934,"EPHEMERIS_TYPE":0,"CLASSIFICATION_TYPE":"U","NORAD_CAT_ID":20466,"ELEMENT_SET_NO":999,"REV_AT_EPOCH":93083,"BSTAR":5.6339826e-5,"MEAN_MOTION_DOT":4.89e-6,"MEAN_MOTION_DDOT":0},{"OBJECT_NAME":"SL-14 R/B","OBJECT_ID":"1990-018B","EPOCH":"2026-03-25T10:26:06.920448","MEAN_MOTION":14.82160153,"ECCENTRICITY":0.00171815,"INCLINATION":82.5232,"RA_OF_ASC_NODE":208.3751,"ARG_OF_PERICENTER":44.1512,"MEAN_ANOMALY":316.107,"EPHEMERIS_TYPE":0,"CLASSIFICATION_TYPE":"U","NORAD_CAT_ID":20511,"ELEMENT_SET_NO":999,"REV_AT_EPOCH":92491,"BSTAR":5.6082332e-5,"MEAN_MOTION_DOT":4.71e-6,"MEAN_MOTION_DDOT":0},{"OBJECT_NAME":"HST","OBJECT_ID":"1990-037B","EPOCH":"2026-03-25T14:26:05.820000","MEAN_MOTION":15.29721912,"ECCENTRICITY":0.00015282,"INCLINATION":28.4722,"RA_OF_ASC_NODE":291.4354,"ARG_OF_PERICENTER":309.7009,"MEAN_ANOMALY":50.3452,"EPHEMERIS_TYPE":0,"CLASSIFICATION_TYPE":"U","NORAD_CAT_ID":20580,"ELEMENT_SET_NO":999,"REV_AT_EPOCH":77575,"BSTAR":0.000230179,"MEAN_MOTION_DOT":7.051e-5,"MEAN_MOTION_DDOT":0},{"OBJECT_NAME":"SL-16 R/B","OBJECT_ID":"1990-046B","EPOCH":"2026-03-25T05:59:08.300832","MEAN_MOTION":14.15013729,"ECCENTRICITY":0.00162863,"INCLINATION":70.9952,"RA_OF_ASC_NODE":265.233,"ARG_OF_PERICENTER":279.2621,"MEAN_ANOMALY":80.6659,"EPHEMERIS_TYPE":0,"CLASSIFICATION_TYPE":"U","NORAD_CAT_ID":20625,"ELEMENT_SET_NO":999,"REV_AT_EPOCH":85059,"BSTAR":0.00012003269,"MEAN_MOTION_DOT":1.85e-6,"MEAN_MOTION_DDOT":0},{"OBJECT_NAME":"COSMOS 2084","OBJECT_ID":"1990-055A","EPOCH":"2026-03-25T06:18:00.257472","MEAN_MOTION":15.05732416,"ECCENTRICITY":0.00146408,"INCLINATION":62.7893,"RA_OF_ASC_NODE":282.4603,"ARG_OF_PERICENTER":194.632,"MEAN_ANOMALY":165.4359,"EPHEMERIS_TYPE":0,"CLASSIFICATION_TYPE":"U","NORAD_CAT_ID":20663,"ELEMENT_SET_NO":999,"REV_AT_EPOCH":93866,"BSTAR":0.0001695807,"MEAN_MOTION_DOT":2.268e-5,"MEAN_MOTION_DDOT":0},{"OBJECT_NAME":"SL-6 R/B(2)","OBJECT_ID":"1990-055D","EPOCH":"2026-03-25T14:22:33.502368","MEAN_MOTION":15.03670004,"ECCENTRICITY":0.00273973,"INCLINATION":62.7831,"RA_OF_ASC_NODE":199.7444,"ARG_OF_PERICENTER":350.7256,"MEAN_ANOMALY":9.3333,"EPHEMERIS_TYPE":0,"CLASSIFICATION_TYPE":"U","NORAD_CAT_ID":20666,"ELEMENT_SET_NO":999,"REV_AT_EPOCH":94058,"BSTAR":0.00016234469,"MEAN_MOTION_DOT":2.049e-5,"MEAN_MOTION_DDOT":0},{"OBJECT_NAME":"SL-8 R/B","OBJECT_ID":"1990-078B","EPOCH":"2026-03-25T10:20:52.812384","MEAN_MOTION":14.89544823,"ECCENTRICITY":0.03590343,"INCLINATION":82.902,"RA_OF_ASC_NODE":237.1455,"ARG_OF_PERICENTER":320.9451,"MEAN_ANOMALY":36.6329,"EPHEMERIS_TYPE":0,"CLASSIFICATION_TYPE":"U","NORAD_CAT_ID":20775,"ELEMENT_SET_NO":999,"REV_AT_EPOCH":81164,"BSTAR":0.00038420629,"MEAN_MOTION_DOT":0.00012981,"MEAN_MOTION_DDOT":0}]
