SL-8 R/B                
1 19257U 88053B   26084.44909917  .00000317  00000+0  11113-3 0  9991
2 19257  74.0451  83.4139 0021510 260.6238 214.9836 14.38926340978862
COSMOS 1975             
1 19573U 88093A   26084.30897824  .00005921  00000+0  21330-3 0  9992
2 19573  82.5168 102.0002 0013276 113.1510 247.1130 15.28274240 21795
SL-14 R/B               
1 19574U 88093B   26084.57815238  .00000568  00000+0  62533-4 0  9994
2 19574  82.5335  27.1305 0020401 350.1083 182.9199 14.85674919  3375
SL-16 R/B               
1 19650U 88102B   26084.37394161 -.00000241  00000+0 -97744-4 0  9997
2 19650  70.9977 118.4966 0014969 337.7337  22.3135 14.16154494929116
INTERCOSMOS 24          
1 20261U 89080A   26084.45052097  .00000531  00000+0  15742-3 0  9998
2 20261  82.6011  94.1376 1186784 256.2030  90.4490 12.59578417668784
SL-14 R/B               
1 20262U 89080C   26084.47958971  .00000414  00000+0  11676-3 0  9999
2 20262  82.5962 163.0542 1230873 148.6756 219.4029 12.50509070662121
DELTA 1 R/B             
1 20323U 89089B   26084.27827608  .00000318  00000+0  87073-4 0  9994
2 20323  97.0694 289.2361 0070640  73.7131 287.1822 14.50675426897999
ARIANE 40 R/B           
1 20443U 90005H   26084.58795808  .00000268  00000+0  98759-4 0  9994
2 20443  98.3050 144.7732 0010831 151.5722 208.6059 14.39880608895092
DELTA 2 R/B(1)          
1 20453U 90008B   26084.34097131  .00065596  00000+0  72556-3 0  9997
2 20453  35.6038  71.9795 0079056  44.5824 316.1238 15.57981471928576
COSMOS 2058             
1 20465U 90010A   26084.60379355  .00004597  00000+0  27010-3 0  9992
2 20465  82.4683  31.7458 0007427 282.8865  77.1536 15.11459947944649
SL-14 R/B               
1 20466U 90010B   26084.53678319  .00000489  00000+0  56340-4 0  9992
2 20466  82.4991 252.4984 0018447 245.9352 113.9934 14.83582753930830
SL-14 R/B               
1 20511U 90018B   26084.43480232  .00000471  00000+0  56082-4 0  9999
2 20511  82.5232 208.3751 0017181  44.1512 316.1070 14.82160153924918
HST                     
1 20580U 90037B   26084.60145625  .00007051  00000+0  23018-3 0  9992
2 20580  28.4722 291.4354 0001528 309.7009  50.3452 15.29721912775753
SL-16 R/B               
1 20625U 90046B   26084.24940163  .00000185  00000+0  12003-3 0  9995
2 20625  70.9952 265.2330 0016286 279.2621  80.6659 14.15013729850596
COSMOS 2084             
1 20663U 90055A   26084.26250298  .00002268  00000+0  16958-3 0  9999
2 20663  62.7893 282.4603 0014640 194.6320 165.4359 15.05732416938668
SL-6 R/B(2)             
1 20666U 90055D   26084.59899887  .00002049  00000+0  16234-3 0  9995
2 20666  62.7831 199.7444 0027397 350.7256   9.3333 15.03670004940586
SL-8 R/B                
1 20775U 90078B   26084.43116681  .00012981  00000+0  38421-3 0  9996
2 20775  82.9020 237.1455 0359034 320.9451  36.6329 14.89544823811646
